[{"OBJECT_NAME":"STARLINK-30529","OBJECT_ID":"2023-156V","EPOCH":"2026-03-09T14:14:05.758080","MEAN_MOTION":15.30190563,"ECCENTRICITY":0.000107,"INCLINATION":53.1595,"RA_OF_ASC_NODE":168.9287,"ARG_OF_PERICENTER":83.7838,"MEAN_ANOMALY":276.3285,"EPHEMERIS_TYPE":0,"CLASSIFICATION_TYPE":"U","NORAD_CAT_ID":58047,"ELEMENT_SET_NO":999,"REV_AT_EPOCH":13496,"BSTAR":-3.5399e-5,"MEAN_MOTION_DOT":-1.407e-5,"MEAN_MOTION_DDOT":0},{"OBJECT_NAME":"VSP RF C1","OBJECT_ID":"2024-043AQ","EPOCH":"2026-03-09T21:56:05.358624","MEAN_MOTION":15.29409663,"ECCENTRICITY":0.00093965,"INCLINATION":97.5441,"RA_OF_ASC_NODE":205.1792,"ARG_OF_PERICENTER":219.6172,"MEAN_ANOMALY":140.4382,"EPHEMERIS_TYPE":0,"CLASSIFICATION_TYPE":"U","NORAD_CAT_ID":59136,"ELEMENT_SET_NO":999,"REV_AT_EPOCH":11190,"BSTAR":0.00026222052,"MEAN_MOTION_DOT":7.409e-5,"MEAN_MOTION_DDOT":0}]
